IRIDIUM 921 [-]         
1 24873U 97034E   23360.52460867  .00022364  00000+0  78391-3 0  9996
2 24873  86.3847  13.3224 0005478 154.8794 205.2722 15.29328469448565
IRIDIUM 26 [-]          
1 24903U 97043A   23360.50367303  .00000810  00000+0  27148-3 0  9995
2 24903  86.3958 336.6432 0002460  88.5191 271.6287 14.36133297379405
IRIDIUM 22 [-]          
1 24907U 97043E   23360.49537677  .00000743  00000+0  25399-3 0  9991
2 24907  86.3962 339.7451 0002225  90.9478 269.1973 14.35035506379499
DUMMY MASS 1 [-]        
1 24925U 97048A   23360.46987548  .00000694  00000+0  76314-4 0  9998
2 24925  86.3342  24.2272 0004545 246.9340 113.1405 14.85976480425104
DUMMY MASS 2 [-]        
1 24926U 97048B   23360.54572537  .00000679  00000+0  75086-4 0  9994
2 24926  86.3342  25.7046 0005243 263.9509  96.1117 14.85737264424904
IRIDIUM 29 [-]          
1 24944U 97051A   23360.55320322  .00000746  00000+0  25285-3 0  9992
2 24944  86.3956   9.6721 0002052  96.7329 263.4101 14.35493411375975
IRIDIUM 33 [-]          
1 24946U 97051C   23360.56049920  .00000477  00000+0  16316-3 0  9993
2 24946  86.3872   8.9363 0009346  47.0784 313.1195 14.34208844375525
IRIDIUM 28 [-]          
1 24948U 97051E   23360.53227448  .00000700  00000+0  23228-3 0  9994
2 24948  86.3963   7.5069 0002596  86.6761 273.4733 14.36434136376490
