<?xml version="1.0" encoding="UTF-8"?>
<ndm xmlns:xsi="http://www.w3.org/2001/XMLSchema-instance" xsi:noNamespaceSchemaLocation="https://sanaregistry.org/r/ndmxml_unqualified/ndmxml-2.0.0-master-2.0.xsd">
<omm id="CCSDS_OMM_VERS" version="2.0">
<header><CREATION_DATE/><ORIGINATOR/></header><body><segment><metadata><OBJECT_NAME>IRIDIUM 921 [-]</OBJECT_NAME><OBJECT_ID>1997-034E</OBJECT_ID><CENTER_NAME>EARTH</CENTER_NAME><REF_FRAME>TEME</REF_FRAME><TIME_SYSTEM>UTC</TIME_SYSTEM><MEAN_ELEMENT_THEORY>SGP4</MEAN_ELEMENT_THEORY></metadata><data><meanElements><EPOCH>2023-12-26T12:35:26.189088</EPOCH><MEAN_MOTION>15.29328469</MEAN_MOTION><ECCENTRICITY>.0005478</ECCENTRICITY><INCLINATION>86.3847</INCLINATION><RA_OF_ASC_NODE>13.3224</RA_OF_ASC_NODE><ARG_OF_PERICENTER>154.8794</ARG_OF_PERICENTER><MEAN_ANOMALY>205.2722</MEAN_ANOMALY></meanElements><tleParameters><EPHEMERIS_TYPE>0</EPHEMERIS_TYPE><CLASSIFICATION_TYPE>U</CLASSIFICATION_TYPE><NORAD_CAT_ID>24873</NORAD_CAT_ID><ELEMENT_SET_NO>999</ELEMENT_SET_NO><REV_AT_EPOCH>44856</REV_AT_EPOCH><BSTAR>.78391E-3</BSTAR><MEAN_MOTION_DOT>.22364E-3</MEAN_MOTION_DOT><MEAN_MOTION_DDOT>0</MEAN_MOTION_DDOT></tleParameters></data></segment></body></omm>
<omm id="CCSDS_OMM_VERS" version="2.0">
<header><CREATION_DATE/><ORIGINATOR/></header><body><segment><metadata><OBJECT_NAME>IRIDIUM 26 [-]</OBJECT_NAME><OBJECT_ID>1997-043A</OBJECT_ID><CENTER_NAME>EARTH</CENTER_NAME><REF_FRAME>TEME</REF_FRAME><TIME_SYSTEM>UTC</TIME_SYSTEM><MEAN_ELEMENT_THEORY>SGP4</MEAN_ELEMENT_THEORY></metadata><data><meanElements><EPOCH>2023-12-26T12:05:17.349792</EPOCH><MEAN_MOTION>14.36133297</MEAN_MOTION><ECCENTRICITY>.000246</ECCENTRICITY><INCLINATION>86.3958</INCLINATION><RA_OF_ASC_NODE>336.6432</RA_OF_ASC_NODE><ARG_OF_PERICENTER>88.5191</ARG_OF_PERICENTER><MEAN_ANOMALY>271.6287</MEAN_ANOMALY></meanElements><tleParameters><EPHEMERIS_TYPE>0</EPHEMERIS_TYPE><CLASSIFICATION_TYPE>U</CLASSIFICATION_TYPE><NORAD_CAT_ID>24903</NORAD_CAT_ID><ELEMENT_SET_NO>999</ELEMENT_SET_NO><REV_AT_EPOCH>37940</REV_AT_EPOCH><BSTAR>.27148E-3</BSTAR><MEAN_MOTION_DOT>.81E-5</MEAN_MOTION_DOT><MEAN_MOTION_DDOT>0</MEAN_MOTION_DDOT></tleParameters></data></segment></body></omm>
<omm id="CCSDS_OMM_VERS" version="2.0">
<header><CREATION_DATE/><ORIGINATOR/></header><body><segment><metadata><OBJECT_NAME>IRIDIUM 22 [-]</OBJECT_NAME><OBJECT_ID>1997-043E</OBJECT_ID><CENTER_NAME>EARTH</CENTER_NAME><REF_FRAME>TEME</REF_FRAME><TIME_SYSTEM>UTC</TIME_SYSTEM><MEAN_ELEMENT_THEORY>SGP4</MEAN_ELEMENT_THEORY></metadata><data><meanElements><EPOCH>2023-12-26T11:53:20.552928</EPOCH><MEAN_MOTION>14.35035506</MEAN_MOTION><ECCENTRICITY>.0002225</ECCENTRICITY><INCLINATION>86.3962</INCLINATION><RA_OF_ASC_NODE>339.7451</RA_OF_ASC_NODE><ARG_OF_PERICENTER>90.9478</ARG_OF_PERICENTER><MEAN_ANOMALY>269.1973</MEAN_ANOMALY></meanElements><tleParameters><EPHEMERIS_TYPE>0</EPHEMERIS_TYPE><CLASSIFICATION_TYPE>U</CLASSIFICATION_TYPE><NORAD_CAT_ID>24907</NORAD_CAT_ID><ELEMENT_SET_NO>999</ELEMENT_SET_NO><REV_AT_EPOCH>37949</REV_AT_EPOCH><BSTAR>.25399E-3</BSTAR><MEAN_MOTION_DOT>.743E-5</MEAN_MOTION_DOT><MEAN_MOTION_DDOT>0</MEAN_MOTION_DDOT></tleParameters></data></segment></body></omm>
<omm id="CCSDS_OMM_VERS" version="2.0">
<header><CREATION_DATE/><ORIGINATOR/></header><body><segment><metadata><OBJECT_NAME>DUMMY MASS 1 [-]</OBJECT_NAME><OBJECT_ID>1997-048A</OBJECT_ID><CENTER_NAME>EARTH</CENTER_NAME><REF_FRAME>TEME</REF_FRAME><TIME_SYSTEM>UTC</TIME_SYSTEM><MEAN_ELEMENT_THEORY>SGP4</MEAN_ELEMENT_THEORY></metadata><data><meanElements><EPOCH>2023-12-26T11:16:37.241472</EPOCH><MEAN_MOTION>14.85976480</MEAN_MOTION><ECCENTRICITY>.0004545</ECCENTRICITY><INCLINATION>86.3342</INCLINATION><RA_OF_ASC_NODE>24.2272</RA_OF_ASC_NODE><ARG_OF_PERICENTER>246.9340</ARG_OF_PERICENTER><MEAN_ANOMALY>113.1405</MEAN_ANOMALY></meanElements><tleParameters><EPHEMERIS_TYPE>0</EPHEMERIS_TYPE><CLASSIFICATION_TYPE>U</CLASSIFICATION_TYPE><NORAD_CAT_ID>24925</NORAD_CAT_ID><ELEMENT_SET_NO>999</ELEMENT_SET_NO><REV_AT_EPOCH>42510</REV_AT_EPOCH><BSTAR>.76314E-4</BSTAR><MEAN_MOTION_DOT>.694E-5</MEAN_MOTION_DOT><MEAN_MOTION_DDOT>0</MEAN_MOTION_DDOT></tleParameters></data></segment></body></omm>
<omm id="CCSDS_OMM_VERS" version="2.0">
<header><CREATION_DATE/><ORIGINATOR/></header><body><segment><metadata><OBJECT_NAME>DUMMY MASS 2 [-]</OBJECT_NAME><OBJECT_ID>1997-048B</OBJECT_ID><CENTER_NAME>EARTH</CENTER_NAME><REF_FRAME>TEME</REF_FRAME><TIME_SYSTEM>UTC</TIME_SYSTEM><MEAN_ELEMENT_THEORY>SGP4</MEAN_ELEMENT_THEORY></metadata><data><meanElements><EPOCH>2023-12-26T13:05:50.671968</EPOCH><MEAN_MOTION>14.85737264</MEAN_MOTION><ECCENTRICITY>.0005243</ECCENTRICITY><INCLINATION>86.3342</INCLINATION><RA_OF_ASC_NODE>25.7046</RA_OF_ASC_NODE><ARG_OF_PERICENTER>263.9509</ARG_OF_PERICENTER><MEAN_ANOMALY>96.1117</MEAN_ANOMALY></meanElements><tleParameters><EPHEMERIS_TYPE>0</EPHEMERIS_TYPE><CLASSIFICATION_TYPE>U</CLASSIFICATION_TYPE><NORAD_CAT_ID>24926</NORAD_CAT_ID><ELEMENT_SET_NO>999</ELEMENT_SET_NO><REV_AT_EPOCH>42490</REV_AT_EPOCH><BSTAR>.75086E-4</BSTAR><MEAN_MOTION_DOT>.679E-5</MEAN_MOTION_DOT><MEAN_MOTION_DDOT>0</MEAN_MOTION_DDOT></tleParameters></data></segment></body></omm>
<omm id="CCSDS_OMM_VERS" version="2.0">
<header><CREATION_DATE/><ORIGINATOR/></header><body><segment><metadata><OBJECT_NAME>IRIDIUM 29 [-]</OBJECT_NAME><OBJECT_ID>1997-051A</OBJECT_ID><CENTER_NAME>EARTH</CENTER_NAME><REF_FRAME>TEME</REF_FRAME><TIME_SYSTEM>UTC</TIME_SYSTEM><MEAN_ELEMENT_THEORY>SGP4</MEAN_ELEMENT_THEORY></metadata><data><meanElements><EPOCH>2023-12-26T13:16:36.758208</EPOCH><MEAN_MOTION>14.35493411</MEAN_MOTION><ECCENTRICITY>.0002052</ECCENTRICITY><INCLINATION>86.3956</INCLINATION><RA_OF_ASC_NODE>9.6721</RA_OF_ASC_NODE><ARG_OF_PERICENTER>96.7329</ARG_OF_PERICENTER><MEAN_ANOMALY>263.4101</MEAN_ANOMALY></meanElements><tleParameters><EPHEMERIS_TYPE>0</EPHEMERIS_TYPE><CLASSIFICATION_TYPE>U</CLASSIFICATION_TYPE><NORAD_CAT_ID>24944</NORAD_CAT_ID><ELEMENT_SET_NO>999</ELEMENT_SET_NO><REV_AT_EPOCH>37597</REV_AT_EPOCH><BSTAR>.25285E-3</BSTAR><MEAN_MOTION_DOT>.746E-5</MEAN_MOTION_DOT><MEAN_MOTION_DDOT>0</MEAN_MOTION_DDOT></tleParameters></data></segment></body></omm>
<omm id="CCSDS_OMM_VERS" version="2.0">
<header><CREATION_DATE/><ORIGINATOR/></header><body><segment><metadata><OBJECT_NAME>IRIDIUM 33 [-]</OBJECT_NAME><OBJECT_ID>1997-051C</OBJECT_ID><CENTER_NAME>EARTH</CENTER_NAME><REF_FRAME>TEME</REF_FRAME><TIME_SYSTEM>UTC</TIME_SYSTEM><MEAN_ELEMENT_THEORY>SGP4</MEAN_ELEMENT_THEORY></metadata><data><meanElements><EPOCH>2023-12-26T13:27:07.130880</EPOCH><MEAN_MOTION>14.34208844</MEAN_MOTION><ECCENTRICITY>.0009346</ECCENTRICITY><INCLINATION>86.3872</INCLINATION><RA_OF_ASC_NODE>8.9363</RA_OF_ASC_NODE><ARG_OF_PERICENTER>47.0784</ARG_OF_PERICENTER><MEAN_ANOMALY>313.1195</MEAN_ANOMALY></meanElements><tleParameters><EPHEMERIS_TYPE>0</EPHEMERIS_TYPE><CLASSIFICATION_TYPE>U</CLASSIFICATION_TYPE><NORAD_CAT_ID>24946</NORAD_CAT_ID><ELEMENT_SET_NO>999</ELEMENT_SET_NO><REV_AT_EPOCH>37552</REV_AT_EPOCH><BSTAR>.16316E-3</BSTAR><MEAN_MOTION_DOT>.477E-5</MEAN_MOTION_DOT><MEAN_MOTION_DDOT>0</MEAN_MOTION_DDOT></tleParameters></data></segment></body></omm>
<omm id="CCSDS_OMM_VERS" version="2.0">
<header><CREATION_DATE/><ORIGINATOR/></header><body><segment><metadata><OBJECT_NAME>IRIDIUM 28 [-]</OBJECT_NAME><OBJECT_ID>1997-051E</OBJECT_ID><CENTER_NAME>EARTH</CENTER_NAME><REF_FRAME>TEME</REF_FRAME><TIME_SYSTEM>UTC</TIME_SYSTEM><MEAN_ELEMENT_THEORY>SGP4</MEAN_ELEMENT_THEORY></metadata><data><meanElements><EPOCH>2023-12-26T12:46:28.515072</EPOCH><MEAN_MOTION>14.36434136</MEAN_MOTION><ECCENTRICITY>.0002596</ECCENTRICITY><INCLINATION>86.3963</INCLINATION><RA_OF_ASC_NODE>7.5069</RA_OF_ASC_NODE><ARG_OF_PERICENTER>86.6761</ARG_OF_PERICENTER><MEAN_ANOMALY>273.4733</MEAN_ANOMALY></meanElements><tleParameters><EPHEMERIS_TYPE>0</EPHEMERIS_TYPE><CLASSIFICATION_TYPE>U</CLASSIFICATION_TYPE><NORAD_CAT_ID>24948</NORAD_CAT_ID><ELEMENT_SET_NO>999</ELEMENT_SET_NO><REV_AT_EPOCH>37649</REV_AT_EPOCH><BSTAR>.23228E-3</BSTAR><MEAN_MOTION_DOT>.7E-5</MEAN_MOTION_DOT><MEAN_MOTION_DDOT>0</MEAN_MOTION_DDOT></tleParameters></data></segment></body></omm>

</ndm>
